id,name,altitude,color,statusname,statusid,statustimestamp,firsttimestatus,lastupdated,size,sizeunit,containment,containmentunit,admindivision,admindivisiontype,admindivisionupper,admindivisionuppertype,protectingunit,publicvisibility,number,categoryType,lat,lng
39D9D561-91B1-4A79-9AF2-57B9903FE300,Williams Rd,365.4847,#FF0000,Active,9ABFE884-54FD-43AE-A309-0E03D24C3BC4,2025-10-16T00:37:00.000Z,2025-10-15T22:46:19.000Z,2025-10-16T17:17:55.275Z,321.5,Acres,70,Percent,Burnet,COUNTY,8,REGION,TXTXS - Texas A & M Forest Service,Visible,254885,Wildfire,30.747949999999992,-98.32971666666668
3E546243-AF7C-483D-8EAD-4ABE211157BB,Double Spade,410.6245,#93735D,Contained,408E3A31-82B6-4C0D-9697-64F86B525A8F,2025-10-16T16:00:05.000Z,2025-10-15T21:31:31.000Z,2025-10-16T16:00:24.552Z,361.0,Acres,100,Percent,Throckmorton,COUNTY,1B,REGION,TXTXS - Texas A & M Forest Service,Visible,254883,Wildfire,33.31543998875388,-99.14931709492882
1C6FFBD3-36DE-4DC9-AF3A-625420B9C3A2,Liberty 4880,35.1326,#93735D,Contained,408E3A31-82B6-4C0D-9697-64F86B525A8F,2025-10-15T22:27:00.000Z,2025-10-15T20:36:00.000Z,2025-10-16T00:02:29.558Z,2.0,Acres,100,Percent,Liberty,COUNTY,4,REGION,TXTXS - Texas A & M Forest Service,Visible,254880,Wildfire,30.21583333333334,-95.02773333333334
B1395F96-6584-423C-8A3A-ED68E3F64FA4,Bowie 4879,97.5879,#93735D,Contained,408E3A31-82B6-4C0D-9697-64F86B525A8F,2025-10-15T23:55:00.000Z,2025-10-15T20:29:00.000Z,2025-10-16T01:42:49.045Z,14.0,Acres,100,Percent,Bowie,COUNTY,3A,REGION,TXTXS - Texas A & M Forest Service,Visible,254879,Wildfire,33.36152732405129,-94.52266746858605
8D61B9A1-831C-4A0F-952A-5333117857F2,Idaho,69.5472,#93735D,Contained,408E3A31-82B6-4C0D-9697-64F86B525A8F,2025-10-15T21:10:48.000Z,2025-10-15T18:01:34.000Z,2025-10-15T21:11:02.457Z,3.3,Acres,100,Percent,Madison,COUNTY,8,REGION,TXTXS - Texas A & M Forest Service,Visible,254874,Wildfire,30.979687000000002,-95.74214299999998
0FA231AC-B905-4D41-AFFC-9AAADD45A9C9,Wood 4861,146.6377,#93735D,Contained,408E3A31-82B6-4C0D-9697-64F86B525A8F,2025-10-15T18:13:00.000Z,2025-10-15T01:50:00.000Z,2025-10-15T18:36:42.895Z,5.0,Acres,100,Percent,Wood,COUNTY,3A,REGION,TXTXS - Texas A & M Forest Service,Visible,254861,Wildfire,32.70821563470659,-95.30712851902508
46CD5BBE-4238-4093-B8D4-374A5678FDA0,Red River 4852,107.7141,#93735D,Contained,408E3A31-82B6-4C0D-9697-64F86B525A8F,2025-10-14T21:48:00.000Z,2025-10-14T19:35:00.000Z,2025-10-15T20:45:42.313Z,4.0,Acres,100,Percent,Red River,COUNTY,3A,REGION,TXTXS - Texas A & M Forest Service,Visible,254852,Wildfire,33.43536728958107,-95.1836398567415
FB53F9EA-24F2-4832-B5F4-CBAF443FEADC,Angelina 4849,67.8117,#595959,Controlled,6CE1E29B-606F-46CB-AEC6-6B9C40B2B18F,2025-10-16T15:51:00.000Z,2025-10-14T19:23:00.000Z,2025-10-16T15:52:09.551Z,8.5,Acres,100,Percent,Angelina,COUNTY,3B,REGION,TXTXS - Texas A & M Forest Service,Visible,254849,Wildfire,31.200110179337198,-94.63126820290636
B78FE085-7C8D-463E-A76E-8A862111712F,San Augustine 4847,161.3929,#93735D,Contained,408E3A31-82B6-4C0D-9697-64F86B525A8F,2025-10-14T21:08:00.000Z,2025-10-14T19:07:00.000Z,2025-10-14T21:46:34.510Z,4.2,Acres,100,Percent,San Augustine,COUNTY,3B,REGION,TXTXS - Texas A & M Forest Service,Visible,254847,Wildfire,31.555555555555554,-94.08111111111111
8239B329-FC45-424E-B508-1CA2332A6B56,Shelby 4837,86.8917,#93735D,Contained,408E3A31-82B6-4C0D-9697-64F86B525A8F,2025-10-14T00:27:00.000Z,2025-10-13T22:08:00.000Z,2025-10-14T00:31:22.189Z,17.1,Acres,100,Percent,Shelby,COUNTY,3B,REGION,TXTXS - Texas A & M Forest Service,Visible,254837,Wildfire,31.767333333333337,-94.07374499999999
E32EBFB0-6834-49DE-81C3-3A2DBBB32409,Gooseberry,215.8292,#93735D,Contained,408E3A31-82B6-4C0D-9697-64F86B525A8F,2025-10-14T19:35:53.000Z,2025-10-13T20:59:42.000Z,2025-10-14T19:36:55.887Z,193.0,Acres,100,Percent,Bell,COUNTY,8,REGION,TXTXS - Texas A & M Forest Service,Visible,254835,Wildfire,30.89327166666666,-97.512565
8537D636-3D81-4749-BE80-346658FB868F,Goebel,142.0653,#93735D,Contained,408E3A31-82B6-4C0D-9697-64F86B525A8F,2025-10-16T00:20:52.000Z,2025-10-13T18:56:26.000Z,2025-10-16T00:21:14.073Z,72.0,Acres,100,Percent,Limestone,COUNTY,8,REGION,TXTXS - Texas A & M Forest Service,Visible,254833,Wildfire,31.287595000000184,-96.53131899999995
4C676C80-3186-4880-8D0E-A1A5BB939B7D,Red River 4830,134.3002,#93735D,Contained,408E3A31-82B6-4C0D-9697-64F86B525A8F,2025-10-13T19:33:00.000Z,2025-10-13T18:12:00.000Z,2025-10-13T19:49:33.771Z,0.26,Acres,100,Percent,Red River,COUNTY,3A,REGION,TXTXS - Texas A & M Forest Service,Visible,254830,Wildfire,33.607749999999996,-95.22468333333335
53DD374C-9586-442E-8195-F0BAB5821138,Feed Yard,519.5846,#93735D,Contained,408E3A31-82B6-4C0D-9697-64F86B525A8F,2025-10-13T01:41:02.000Z,2025-10-12T19:57:13.000Z,2025-10-13T15:02:19.456Z,100.0,Acres,100,Percent,Eastland,COUNTY,1B,REGION,TXTXS - Texas A & M Forest Service,Visible,254806,Wildfire,32.102042,-98.987198
B498FABE-B4C0-4C6E-B5B7-8E17EB70B6B0,Harding,293.7842,#93735D,Contained,408E3A31-82B6-4C0D-9697-64F86B525A8F,2025-10-12T21:38:28.000Z,2025-10-12T17:45:05.000Z,2025-10-16T11:55:43.995Z,12.8,Acres,100,Percent,Wichita,COUNTY,2,REGION,TXTXS - Texas A & M Forest Service,Visible,254799,Wildfire,33.91452300000019,-98.42775199999998
83905FF2-43DB-45CD-8AFC-CE75AAC43324,White Canyon,538.4858,#93735D,Contained,408E3A31-82B6-4C0D-9697-64F86B525A8F,2025-10-12T05:39:43.000Z,2025-10-11T22:37:05.000Z,2025-10-12T06:44:19.112Z,30.0,Acres,100,Percent,Fisher,COUNTY,1B,REGION,TXTXS - Texas A & M Forest Service,Visible,254795,Wildfire,32.956399,-100.463126
F6F0B3B6-6CA6-4B42-9F09-FF6FEB8AD412,Cass 4782,86.144,#595959,Controlled,6CE1E29B-606F-46CB-AEC6-6B9C40B2B18F,2025-10-16T13:00:00.000Z,2025-10-11T19:48:00.000Z,2025-10-16T13:48:11.187Z,2.0,Acres,100,Percent,Cass,COUNTY,3A,REGION,TXTXS - Texas A & M Forest Service,Visible,254782,Wildfire,32.92145,-94.05286666666667
48A31C31-78C6-4C44-B1E3-B268DB71EA1C,Hardin 4773,26.5671,#93735D,Contained,408E3A31-82B6-4C0D-9697-64F86B525A8F,2025-10-11T00:08:00.000Z,2025-10-10T22:48:00.000Z,2025-10-11T00:12:42.285Z,5.0,Acres,100,Percent,Hardin,COUNTY,3B,REGION,TXTXS - Texas A & M Forest Service,Visible,254773,Wildfire,30.2449,-94.54229000000001
6533155D-5033-4193-A4CE-6920EE3CFCFD,Red River 4757,155.4962,#93735D,Contained,408E3A31-82B6-4C0D-9697-64F86B525A8F,2025-10-09T22:56:00.000Z,2025-10-09T20:55:00.000Z,2025-10-16T13:08:38.462Z,2.0,Acres,100,Percent,Red River,COUNTY,3A,REGION,TXTXS - Texas A & M Forest Service,Visible,254757,Wildfire,33.557745354587304,-94.78789703430613
18BD252F-B576-4E5E-9017-94386137965A,Orange 4753,6.379,#93735D,Contained,408E3A31-82B6-4C0D-9697-64F86B525A8F,2025-10-09T22:04:00.000Z,2025-10-09T20:00:00.000Z,2025-10-12T13:10:06.892Z,3.5,Acres,100,Percent,Orange,COUNTY,3B,REGION,TXTXS - Texas A & M Forest Service,Visible,254753,Wildfire,30.12410660704008,-93.94916602685088
