id,name,altitude,color,statusname,statusid,statustimestamp,firsttimestatus,lastupdated,size,sizeunit,containment,containmentunit,admindivision,admindivisiontype,admindivisionupper,admindivisionuppertype,protectingunit,publicvisibility,number,categoryType,lat,lng
0F17985B-36DD-43FA-A870-E625713C1025,Morris 4807,124.3457,#93735D,Contained,408E3A31-82B6-4C0D-9697-64F86B525A8F,2025-10-12T23:48:00.000Z,2025-10-12T20:25:00.000Z,2025-10-13T00:38:32.076Z,3.0,Acres,100,Percent,Morris,COUNTY,3A,REGION,TXTXS - Texas A & M Forest Service,Visible,254807,Wildfire,33.11381014140699,-94.72495965411653
53DD374C-9586-442E-8195-F0BAB5821138,Feed Yard,519.5846,#FF0000,Active,9ABFE884-54FD-43AE-A309-0E03D24C3BC4,2025-10-12T20:56:52.000Z,2025-10-12T19:57:13.000Z,2025-10-13T00:08:48.655Z,70.0,Acres,50,Percent,Eastland,COUNTY,1B,REGION,TXTXS - Texas A & M Forest Service,Visible,254806,Wildfire,32.102042,-98.987198
56F1E578-BED8-4D34-AEE1-A68B1E4E7F13,Marion 4802,103.4454,#93735D,Contained,408E3A31-82B6-4C0D-9697-64F86B525A8F,2025-10-12T21:07:00.000Z,2025-10-12T19:02:00.000Z,2025-10-12T21:11:32.031Z,1.0,Acres,100,Percent,Marion,COUNTY,3A,REGION,TXTXS - Texas A & M Forest Service,Visible,254804,Wildfire,32.80599999999999,-94.519
CD6121E6-66C1-49DC-9854-7C77B9CF6761,Nacogdoches 4800,69.5678,#93735D,Contained,408E3A31-82B6-4C0D-9697-64F86B525A8F,2025-10-12T20:36:00.000Z,2025-10-12T18:27:00.000Z,2025-10-12T20:37:29.353Z,1.0,Acres,100,Percent,Nacogdoches,COUNTY,3B,REGION,TXTXS - Texas A & M Forest Service,Visible,254800,Wildfire,31.67551666666666,-94.93304
B498FABE-B4C0-4C6E-B5B7-8E17EB70B6B0,Harding,293.7842,#93735D,Contained,408E3A31-82B6-4C0D-9697-64F86B525A8F,2025-10-12T21:38:28.000Z,2025-10-12T17:45:05.000Z,2025-10-12T22:43:26.792Z,12.8,Acres,100,Percent,Wichita,COUNTY,2,REGION,TXTXS - Texas A & M Forest Service,Visible,254799,Wildfire,33.91452300000019,-98.42775199999998
DB4A2E5E-B18E-493D-8DB6-F7BD5F380BC1,Loyal Valley,465.4938,#93735D,Contained,408E3A31-82B6-4C0D-9697-64F86B525A8F,2025-10-12T21:56:57.000Z,2025-10-12T16:48:30.000Z,2025-10-12T21:58:04.367Z,50.0,Acres,100,Percent,Mason,COUNTY,7,REGION,TXTXS - Texas A & M Forest Service,Visible,254798,Wildfire,30.58361111111129,-99.01305555555554
F8D1D8CA-5D02-4354-B563-3AE698E9AE0C,Polk 4797,63.7525,#93735D,Contained,408E3A31-82B6-4C0D-9697-64F86B525A8F,2025-10-12T14:50:00.000Z,2025-10-12T12:14:00.000Z,2025-10-12T21:17:12.786Z,0.71,Acres,100,Percent,Polk,COUNTY,3B,REGION,TXTXS - Texas A & M Forest Service,Visible,254797,Wildfire,30.82143333333332,-95.11459999999998
EE2FAD23-FC54-48BD-81A2-670D6E8B9CAE,Polk 4796,98.3338,#93735D,Contained,408E3A31-82B6-4C0D-9697-64F86B525A8F,2025-10-12T04:35:00.000Z,2025-10-12T01:08:00.000Z,2025-10-12T13:06:50.717Z,1.14,Acres,100,Percent,Polk,COUNTY,3B,REGION,TXTXS - Texas A & M Forest Service,Visible,254796,Wildfire,30.686281827912953,-94.75739050520387
83905FF2-43DB-45CD-8AFC-CE75AAC43324,White Canyon,538.4858,#93735D,Contained,408E3A31-82B6-4C0D-9697-64F86B525A8F,2025-10-12T05:39:43.000Z,2025-10-11T22:37:05.000Z,2025-10-12T06:44:19.112Z,30.0,Acres,100,Percent,Fisher,COUNTY,1B,REGION,TXTXS - Texas A & M Forest Service,Visible,254795,Wildfire,32.956399,-100.463126
6909FCB0-84E0-4E7F-9211-5660E4B65232,Sabine 4793,91.9664,#93735D,Contained,408E3A31-82B6-4C0D-9697-64F86B525A8F,2025-10-12T00:50:00.000Z,2025-10-11T21:28:00.000Z,2025-10-12T16:58:32.079Z,14.0,Acres,100,Percent,Sabine,COUNTY,3B,REGION,TXTXS - Texas A & M Forest Service,Visible,254793,Wildfire,31.33399999999999,-94.01503
F63EE58C-8298-459E-B4BA-702587E9C9D2,Orange 4790,4.8384,#93735D,Contained,408E3A31-82B6-4C0D-9697-64F86B525A8F,2025-10-12T00:43:00.000Z,2025-10-11T20:40:00.000Z,2025-10-12T15:12:07.149Z,57.31,Acres,100,Percent,Orange,COUNTY,3B,REGION,TXTXS - Texas A & M Forest Service,Visible,254790,Wildfire,30.162327683086353,-93.93800864460086
63B1173E-F3D8-4A06-8438-370BB9F29A45,Blackburn Canyon,1094.6,#93735D,Contained,408E3A31-82B6-4C0D-9697-64F86B525A8F,2025-10-12T00:50:00.000Z,2025-10-11T20:21:47.000Z,2025-10-12T00:50:47.763Z,39.0,Acres,100,Percent,Randall,COUNTY,1A,REGION,TXTXS - Texas A & M Forest Service,Visible,254788,Wildfire,34.99975,-101.8929
F6F0B3B6-6CA6-4B42-9F09-FF6FEB8AD412,Cass 4782,86.144,#93735D,Contained,408E3A31-82B6-4C0D-9697-64F86B525A8F,2025-10-11T21:27:00.000Z,2025-10-11T19:48:00.000Z,2025-10-11T21:35:01.534Z,2.0,Acres,100,Percent,Cass,COUNTY,3A,REGION,TXTXS - Texas A & M Forest Service,Visible,254782,Wildfire,32.92145,-94.05286666666667
6EDEF1C9-EC1D-4752-BE22-BBD6598F254B,Nacogdoches 4779,106.6486,#93735D,Contained,408E3A31-82B6-4C0D-9697-64F86B525A8F,2025-10-11T21:13:00.000Z,2025-10-11T19:00:00.000Z,2025-10-11T21:16:59.688Z,0.5,Acres,100,Percent,Nacogdoches,COUNTY,3B,REGION,TXTXS - Texas A & M Forest Service,Visible,254779,Wildfire,31.747099999999993,-94.45885
769437F8-07CF-492C-BC86-2C0551D2597B,Sabine 4778,75.2003,#93735D,Contained,408E3A31-82B6-4C0D-9697-64F86B525A8F,2025-10-11T20:27:00.000Z,2025-10-11T18:45:00.000Z,2025-10-11T20:34:53.671Z,0.2,Acres,100,Percent,Sabine,COUNTY,3B,REGION,TXTXS - Texas A & M Forest Service,Visible,254778,Wildfire,31.33943333333332,-93.87081666666667
5491AEFD-7AE6-4F38-9757-C8B1CD65056D,Bowie 4776,96.7037,#93735D,Contained,408E3A31-82B6-4C0D-9697-64F86B525A8F,2025-10-11T19:52:00.000Z,2025-10-11T17:21:00.000Z,2025-10-12T21:14:08.006Z,16.0,Acres,100,Percent,Bowie,COUNTY,3A,REGION,TXTXS - Texas A & M Forest Service,Visible,254776,Wildfire,33.38401908818187,-94.32509345251631
48A31C31-78C6-4C44-B1E3-B268DB71EA1C,Hardin 4773,26.5671,#93735D,Contained,408E3A31-82B6-4C0D-9697-64F86B525A8F,2025-10-11T00:08:00.000Z,2025-10-10T22:48:00.000Z,2025-10-11T00:12:42.285Z,5.0,Acres,100,Percent,Hardin,COUNTY,3B,REGION,TXTXS - Texas A & M Forest Service,Visible,254773,Wildfire,30.2449,-94.54229000000001
54A89842-B75F-4D5D-8A39-FF9C3DA55A94,Carbon,16.624,#93735D,Contained,408E3A31-82B6-4C0D-9697-64F86B525A8F,2025-10-11T01:35:34.000Z,2025-10-10T21:37:16.000Z,2025-10-11T01:36:14.011Z,20.0,Acres,100,Percent,Jackson,COUNTY,6,REGION,TXTXS - Texas A & M Forest Service,Visible,254772,Wildfire,28.98090101033383,-96.34020029009342
DD75E8E1-076F-4E9A-B7E8-0040E062BF0E,San Augustine 4769,104.186,#93735D,Contained,408E3A31-82B6-4C0D-9697-64F86B525A8F,2025-10-10T21:04:00.000Z,2025-10-10T20:19:00.000Z,2025-10-10T21:16:20.179Z,0.25,Acres,100,Percent,San Augustine,COUNTY,3B,REGION,TXTXS - Texas A & M Forest Service,Visible,254769,Wildfire,31.534560000000003,-94.125
FFD4EFD6-7D4F-4BB3-A217-1D9D540BEB77,Waller 4768,94.7246,#93735D,Contained,408E3A31-82B6-4C0D-9697-64F86B525A8F,2025-10-11T00:57:41.000Z,2025-10-10T20:05:00.000Z,2025-10-11T17:01:58.547Z,4.6,Acres,100,Percent,Waller,COUNTY,4,REGION,TXTXS - Texas A & M Forest Service,Visible,254768,Wildfire,30.226291755541432,-95.92952354542594
E6037CB2-B46A-4FB9-8F86-8642726245D6,Running Waters,1121.0944,#93735D,Contained,408E3A31-82B6-4C0D-9697-64F86B525A8F,2025-10-09T23:38:57.000Z,2025-10-09T20:42:21.000Z,2025-10-10T23:00:56.712Z,106.0,Acres,100,Percent,Randall,COUNTY,1A,REGION,TXTXS - Texas A & M Forest Service,Visible,254756,Wildfire,34.76403333333333,-101.9128
9A8876B0-F338-4CA0-962F-D5C665242FA7,Parsons,41.0415,#93735D,Contained,408E3A31-82B6-4C0D-9697-64F86B525A8F,2025-10-10T18:19:42.000Z,2025-10-09T20:03:26.000Z,2025-10-11T14:28:24.012Z,66.0,Acres,100,Percent,Victoria,COUNTY,6,REGION,TXTXS - Texas A & M Forest Service,Visible,254754,Wildfire,28.90083333333332,-97.02222222222223
18BD252F-B576-4E5E-9017-94386137965A,Orange 4753,6.379,#93735D,Contained,408E3A31-82B6-4C0D-9697-64F86B525A8F,2025-10-09T22:04:00.000Z,2025-10-09T20:00:00.000Z,2025-10-12T13:10:06.892Z,3.5,Acres,100,Percent,Orange,COUNTY,3B,REGION,TXTXS - Texas A & M Forest Service,Visible,254753,Wildfire,30.12410660704008,-93.94916602685088
A6072EF9-365C-4B3E-832B-4A97624943E0,Wade,91.7195,#93735D,Contained,408E3A31-82B6-4C0D-9697-64F86B525A8F,2025-10-09T23:29:03.000Z,2025-10-09T19:02:31.000Z,2025-10-09T23:39:19.605Z,3.0,Acres,100,Percent,Grimes,COUNTY,8,REGION,TXTXS - Texas A & M Forest Service,Visible,254750,Wildfire,30.247999999999994,-95.83323333333335
210DD850-3F57-4306-B116-6FD7B3FF6C33,Hole 18,139.2846,#93735D,Contained,408E3A31-82B6-4C0D-9697-64F86B525A8F,2025-10-08T19:23:37.000Z,2025-10-07T17:24:17.000Z,2025-10-08T19:24:39.608Z,15.0,Acres,100,Percent,Bastrop,COUNTY,8,REGION,TXTXS - Texas A & M Forest Service,Visible,254705,Wildfire,30.168248999999992,-97.45378800000002
66A3C591-9EE7-4862-ABC1-F87F3E51C8C8,Panola 4681,103.045,#93735D,Contained,408E3A31-82B6-4C0D-9697-64F86B525A8F,2025-10-04T23:59:00.000Z,2025-10-04T22:41:00.000Z,2025-10-12T13:01:03.551Z,1.0,Acres,100,Percent,Panola,COUNTY,3A,REGION,TXTXS - Texas A & M Forest Service,Visible,254681,Wildfire,32.236098,-94.161118
