id,name,altitude,color,statusname,statusid,statustimestamp,firsttimestatus,lastupdated,size,sizeunit,containment,containmentunit,admindivision,admindivisiontype,admindivisionupper,admindivisionuppertype,protectingunit,publicvisibility,number,categoryType,lat,lng
3C79F696-3DF4-42C6-A6E8-51A43CA19688,Gregg 4643,121.3302,#FF0000,Active,9ABFE884-54FD-43AE-A309-0E03D24C3BC4,2025-10-02T22:14:00.000Z,2025-10-02T21:07:00.000Z,2025-10-02T22:23:06.785Z,3.0,Acres,0,Percent,Gregg,COUNTY,3A,REGION,TXTXS - Texas A & M Forest Service,Visible,254643,Wildfire,32.511944444444445,-94.8586111111111
746491AD-5585-440C-B28B-DE79C7E21F87,Leaning Tree,307.7114,#93735D,Contained,408E3A31-82B6-4C0D-9697-64F86B525A8F,2025-10-02T22:42:44.000Z,2025-10-02T20:57:55.000Z,2025-10-02T22:43:12.208Z,10.0,Acres,100,Percent,Palo Pinto,COUNTY,2,REGION,TXTXS - Texas A & M Forest Service,Visible,254642,Wildfire,32.723962000000185,-98.13185399999999
9CAAB041-A27D-40D5-B35C-73E2EE84152F,Jasper 4641,93.3676,#FF0000,Active,9ABFE884-54FD-43AE-A309-0E03D24C3BC4,2025-10-02T22:00:00.000Z,2025-10-02T20:47:00.000Z,2025-10-02T22:38:02.239Z,30.0,Acres,0,Percent,Jasper,COUNTY,3B,REGION,TXTXS - Texas A & M Forest Service,Visible,254641,Wildfire,30.844933333333522,-93.98524999999994
ABE51C07-1372-4C94-8F30-4D2756A85573,Jasper 4640,58.2069,#FF0000,Active,9ABFE884-54FD-43AE-A309-0E03D24C3BC4,2025-10-02T21:26:00.000Z,2025-10-02T20:29:00.000Z,2025-10-02T22:20:26.340Z,2.0,Acres,75,Percent,Jasper,COUNTY,3B,REGION,TXTXS - Texas A & M Forest Service,Visible,254640,Wildfire,30.898233333333337,-94.10730000000001
B77D8783-3FAD-4E4C-B11F-A88DA99A60B3,Jasper 4623,19.2874,#93735D,Contained,408E3A31-82B6-4C0D-9697-64F86B525A8F,2025-10-02T03:28:00.000Z,2025-10-02T01:23:00.000Z,2025-10-02T13:53:58.823Z,1.0,Acres,100,Percent,Jasper,COUNTY,3B,REGION,TXTXS - Texas A & M Forest Service,Visible,254623,Wildfire,30.403503198163037,-94.02743893468536
0D116C3F-8869-4D46-9C8D-46BC7B15520A,Walker 4621,101.8939,#93735D,Contained,408E3A31-82B6-4C0D-9697-64F86B525A8F,2025-10-02T00:40:00.000Z,2025-10-01T21:22:00.000Z,2025-10-02T00:48:34.696Z,23.0,Acres,100,Percent,Walker,COUNTY,4,REGION,TXTXS - Texas A & M Forest Service,Visible,254621,Wildfire,30.741302618346893,-95.4393198773255
FBE68C30-872A-475C-AB88-A72967AAB566,2 Horse,103.8226,#93735D,Contained,408E3A31-82B6-4C0D-9697-64F86B525A8F,2025-10-01T23:40:00.000Z,2025-10-01T20:03:54.000Z,2025-10-01T23:56:07.228Z,11.4,Acres,100,Percent,Grimes,COUNTY,8,REGION,TXTXS - Texas A & M Forest Service,Visible,254618,Wildfire,30.322643709063307,-95.87670453962608
1CF7F8B1-B311-4DC9-8504-AE2BFE3EEC85,Nacogdoches 4615,150.3433,#93735D,Contained,408E3A31-82B6-4C0D-9697-64F86B525A8F,2025-10-02T00:49:00.000Z,2025-10-01T18:56:00.000Z,2025-10-02T00:52:50.281Z,23.0,Acres,100,Percent,Nacogdoches,COUNTY,3B,REGION,TXTXS - Texas A & M Forest Service,Visible,254615,Wildfire,31.6913406222529,-94.85394055473375
40443C7E-56DC-47BD-8DCE-29D3C6FEC5E4,Cass 4613,129.2923,#93735D,Contained,408E3A31-82B6-4C0D-9697-64F86B525A8F,2025-10-01T20:18:00.000Z,2025-10-01T17:21:00.000Z,2025-10-02T16:43:01.916Z,4.0,Acres,100,Percent,Cass,COUNTY,3A,REGION,TXTXS - Texas A & M Forest Service,Visible,254613,Wildfire,33.20015156146587,-94.51015938691442
62D51E3C-39D4-419D-8B2F-54BE9D4E856F,Angelina 4605,88.3699,#93735D,Contained,408E3A31-82B6-4C0D-9697-64F86B525A8F,2025-10-01T00:00:00.000Z,2025-09-30T22:18:00.000Z,2025-10-01T00:08:08.439Z,1.0,Acres,100,Percent,Angelina,COUNTY,3B,REGION,TXTXS - Texas A & M Forest Service,Visible,254605,Wildfire,31.404647000000008,-94.623756
69F11321-B43F-47B3-94F5-5543C7B3B065,Moon,149.399,#93735D,Contained,408E3A31-82B6-4C0D-9697-64F86B525A8F,2025-09-30T23:06:39.000Z,2025-09-30T20:28:17.000Z,2025-09-30T23:29:53.192Z,15.0,Acres,100,Percent,Bell,COUNTY,8,REGION,TXTXS - Texas A & M Forest Service,Visible,254604,Wildfire,30.96745833333332,-97.42980666666666
9F188426-32D1-4A06-83AA-8C1607094708,Shelby 4595,134.4597,#595959,Controlled,6CE1E29B-606F-46CB-AEC6-6B9C40B2B18F,2025-10-02T14:46:00.000Z,2025-09-30T07:25:00.000Z,2025-10-02T17:40:05.847Z,2.0,Acres,100,Percent,Shelby,COUNTY,3B,REGION,TXTXS - Texas A & M Forest Service,Visible,254595,Wildfire,31.828657468501262,-94.32387797479635
9712600D-68FF-4446-9FEC-17203B5F4F9C,Mine,2.8594,#93735D,Contained,408E3A31-82B6-4C0D-9697-64F86B525A8F,2025-09-30T19:04:51.000Z,2025-09-29T19:51:36.000Z,2025-09-30T19:05:40.364Z,72.0,Acres,100,Percent,San Patricio,COUNTY,5,REGION,TXTXS - Texas A & M Forest Service,Visible,254593,Wildfire,27.883999999999986,-97.65949999999998
4A242AA4-E56F-45C3-9436-725C4572AE35,Shelby 4592,108.8345,#595959,Controlled,6CE1E29B-606F-46CB-AEC6-6B9C40B2B18F,2025-10-02T17:39:00.000Z,2025-09-29T19:45:00.000Z,2025-10-02T17:40:02.677Z,0.66,Acres,100,Percent,Shelby,COUNTY,3B,REGION,TXTXS - Texas A & M Forest Service,Visible,254592,Wildfire,31.955466926808832,-94.25721900104396
D5B0FB82-A0B2-4199-B646-7531D05E48CA,Jasper 4590,32.6788,#595959,Controlled,6CE1E29B-606F-46CB-AEC6-6B9C40B2B18F,2025-10-02T17:39:00.000Z,2025-09-29T18:34:00.000Z,2025-10-02T17:40:39.677Z,2.3,Acres,100,Percent,Jasper,COUNTY,3B,REGION,TXTXS - Texas A & M Forest Service,Visible,254590,Wildfire,30.545050000000003,-93.92935
8CDDB32B-802E-495C-9423-07339A0CC789,Princess,66.7444,#93735D,Contained,408E3A31-82B6-4C0D-9697-64F86B525A8F,2025-09-30T03:19:00.000Z,2025-09-29T18:32:00.000Z,2025-10-01T02:12:09.299Z,130.0,Acres,100,Percent,Polk,COUNTY,3B,REGION,TXTXS - Texas A & M Forest Service,Visible,254589,Wildfire,31.002408305325208,-94.78498243455476
07AD019C-2117-4FFB-87DF-1E39DC7B61D4,Big Sandy,120.8061,#93735D,Contained,408E3A31-82B6-4C0D-9697-64F86B525A8F,2025-09-29T18:38:45.000Z,2025-09-28T21:30:35.000Z,2025-10-02T17:02:31.584Z,18.5,Acres,100,Percent,Bastrop,COUNTY,8,REGION,TXTXS - Texas A & M Forest Service,Visible,254576,Wildfire,30.220817000000004,-97.34348299999999
FF6CA2F5-18AE-4A9D-A530-4DC70821DD8F,Harris 4572,28.0806,#93735D,Contained,408E3A31-82B6-4C0D-9697-64F86B525A8F,2025-09-29T19:57:00.000Z,2025-09-28T18:07:00.000Z,2025-09-30T16:55:06.386Z,40.0,Acres,100,Percent,Harris,COUNTY,4,REGION,TXTXS - Texas A & M Forest Service,Visible,254572,Wildfire,29.802683333333327,-95.62081666666667
0255D708-7C03-4249-9DCB-AB7148CF585F,Tyler 4565,66.6233,#93735D,Contained,408E3A31-82B6-4C0D-9697-64F86B525A8F,2025-09-27T17:36:00.000Z,2025-09-27T16:26:00.000Z,2025-09-27T18:17:54.725Z,2.0,Acres,100,Percent,Tyler,COUNTY,3B,REGION,TXTXS - Texas A & M Forest Service,Visible,254565,Wildfire,30.687063999999992,-94.312509
A5EBAFE5-0ACB-4B53-ADE2-92C995FBC75A,Smoke Signal,94.2324,#93735D,Contained,408E3A31-82B6-4C0D-9697-64F86B525A8F,2025-09-26T22:48:00.000Z,2025-09-26T20:04:51.000Z,2025-09-27T00:41:26.093Z,0.98,Acres,100,Percent,Waller,COUNTY,4,REGION,TXTXS - Texas A & M Forest Service,Visible,254556,Wildfire,30.208849999999998,-96.00411666666668
D321166F-6563-49AF-A087-BBE19E1028B5,Newton 4549,20.1216,#595959,Controlled,6CE1E29B-606F-46CB-AEC6-6B9C40B2B18F,2025-10-02T15:03:00.000Z,2025-09-26T14:37:54.000Z,2025-10-02T15:04:08.425Z,2.1,Acres,100,Percent,Newton,COUNTY,3B,REGION,TXTXS - Texas A & M Forest Service,Visible,254549,Wildfire,30.658067000000003,-93.68608699999999
