id,name,altitude,color,statusname,statusid,statustimestamp,firsttimestatus,lastupdated,size,sizeunit,containment,containmentunit,admindivision,admindivisiontype,admindivisionupper,admindivisionuppertype,protectingunit,publicvisibility,number,categoryType,lat,lng
46CD5BBE-4238-4093-B8D4-374A5678FDA0,Red River 4852,106.5813,#93735D,Contained,408E3A31-82B6-4C0D-9697-64F86B525A8F,2025-10-14T21:48:00.000Z,2025-10-14T19:35:00.000Z,2025-10-14T21:56:04.676Z,4.0,Acres,100,Percent,Red River,COUNTY,3A,REGION,TXTXS - Texas A & M Forest Service,Visible,254852,Wildfire,33.434698,-95.183647
5EC6FF76-63F3-48B7-9EFA-C2B449CE6A2B,Jasper 4850,90.8167,#93735D,Contained,408E3A31-82B6-4C0D-9697-64F86B525A8F,2025-10-14T20:18:00.000Z,2025-10-14T19:24:00.000Z,2025-10-14T20:40:04.348Z,0.17,Acres,100,Percent,Jasper,COUNTY,3B,REGION,TXTXS - Texas A & M Forest Service,Visible,254850,Wildfire,30.940432409726025,-94.01653421505458
FB53F9EA-24F2-4832-B5F4-CBAF443FEADC,Angelina 4849,65.3304,#FF0000,Active,9ABFE884-54FD-43AE-A309-0E03D24C3BC4,2025-10-14T20:32:00.000Z,2025-10-14T19:23:00.000Z,2025-10-14T21:21:14.727Z,5.0,Acres,75,Percent,Angelina,COUNTY,3B,REGION,TXTXS - Texas A & M Forest Service,Visible,254849,Wildfire,31.20034999999999,-94.63226666666667
B78FE085-7C8D-463E-A76E-8A862111712F,San Augustine 4847,161.3929,#93735D,Contained,408E3A31-82B6-4C0D-9697-64F86B525A8F,2025-10-14T21:08:00.000Z,2025-10-14T19:07:00.000Z,2025-10-14T21:46:34.510Z,4.2,Acres,100,Percent,San Augustine,COUNTY,3B,REGION,TXTXS - Texas A & M Forest Service,Visible,254847,Wildfire,31.555555555555554,-94.08111111111111
76D3364A-0B94-43B5-B3F0-93BEBB96815D,Cherokee 4843,155.2245,#93735D,Contained,408E3A31-82B6-4C0D-9697-64F86B525A8F,2025-10-14T19:42:00.000Z,2025-10-14T18:40:00.000Z,2025-10-14T19:43:52.790Z,0.5,Acres,100,Percent,Cherokee,COUNTY,3A,REGION,TXTXS - Texas A & M Forest Service,Visible,254843,Wildfire,31.706249999999994,-95.05613333333332
9984122D-21CB-4FBA-8A10-BA5B72063997,Harrison 4839,103.9883,#93735D,Contained,408E3A31-82B6-4C0D-9697-64F86B525A8F,2025-10-14T15:20:00.000Z,2025-10-14T13:12:00.000Z,2025-10-14T15:22:49.287Z,1.0,Acres,100,Percent,Harrison,COUNTY,3A,REGION,TXTXS - Texas A & M Forest Service,Visible,254839,Wildfire,32.46434699999999,-94.180265
8239B329-FC45-424E-B508-1CA2332A6B56,Shelby 4837,86.8917,#93735D,Contained,408E3A31-82B6-4C0D-9697-64F86B525A8F,2025-10-14T00:27:00.000Z,2025-10-13T22:08:00.000Z,2025-10-14T00:31:22.189Z,17.1,Acres,100,Percent,Shelby,COUNTY,3B,REGION,TXTXS - Texas A & M Forest Service,Visible,254837,Wildfire,31.767333333333337,-94.07374499999999
24D0821D-91F7-4A2A-BCE1-69EEF277A418,Gregg 4836,108.4329,#93735D,Contained,408E3A31-82B6-4C0D-9697-64F86B525A8F,2025-10-13T23:55:00.000Z,2025-10-13T21:05:00.000Z,2025-10-13T23:58:06.839Z,2.0,Acres,100,Percent,Gregg,COUNTY,3A,REGION,TXTXS - Texas A & M Forest Service,Visible,254836,Wildfire,32.55617000000019,-94.84868999999996
E32EBFB0-6834-49DE-81C3-3A2DBBB32409,Gooseberry,215.8292,#93735D,Contained,408E3A31-82B6-4C0D-9697-64F86B525A8F,2025-10-14T19:35:53.000Z,2025-10-13T20:59:42.000Z,2025-10-14T19:36:55.887Z,193.0,Acres,100,Percent,Bell,COUNTY,8,REGION,TXTXS - Texas A & M Forest Service,Visible,254835,Wildfire,30.89327166666666,-97.512565
5FE0B2A4-024C-4EE7-949F-2572CB94A0BF,Jasper 4834,47.7108,#93735D,Contained,408E3A31-82B6-4C0D-9697-64F86B525A8F,2025-10-13T22:06:00.000Z,2025-10-13T19:47:07.000Z,2025-10-13T23:05:47.317Z,2.0,Acres,100,Percent,Jasper,COUNTY,3B,REGION,TXTXS - Texas A & M Forest Service,Visible,254834,Wildfire,30.969239999999992,-94.12359000000001
8537D636-3D81-4749-BE80-346658FB868F,Goebel,142.0653,#FF0000,Active,9ABFE884-54FD-43AE-A309-0E03D24C3BC4,2025-10-13T20:43:01.000Z,2025-10-13T18:56:26.000Z,2025-10-14T19:46:30.754Z,59.0,Acres,70,Percent,Limestone,COUNTY,8,REGION,TXTXS - Texas A & M Forest Service,Visible,254833,Wildfire,31.287595000000184,-96.53131899999995
4C676C80-3186-4880-8D0E-A1A5BB939B7D,Red River 4830,134.3002,#93735D,Contained,408E3A31-82B6-4C0D-9697-64F86B525A8F,2025-10-13T19:33:00.000Z,2025-10-13T18:12:00.000Z,2025-10-13T19:49:33.771Z,0.26,Acres,100,Percent,Red River,COUNTY,3A,REGION,TXTXS - Texas A & M Forest Service,Visible,254830,Wildfire,33.607749999999996,-95.22468333333335
6215631D-E09C-45F1-BC0C-3C79444AE88A,Jasper 4829,38.756,#93735D,Contained,408E3A31-82B6-4C0D-9697-64F86B525A8F,2025-10-13T21:58:00.000Z,2025-10-13T18:01:00.000Z,2025-10-14T14:42:37.241Z,17.25,Acres,100,Percent,Jasper,COUNTY,3B,REGION,TXTXS - Texas A & M Forest Service,Visible,254829,Wildfire,30.542366666666666,-94.01721666666667
1797B21C-9267-4961-9723-B4F49D950194,Panola 4810,113.3809,#93735D,Contained,408E3A31-82B6-4C0D-9697-64F86B525A8F,2025-10-13T04:51:00.000Z,2025-10-13T01:56:00.000Z,2025-10-13T05:40:44.479Z,2.86,Acres,100,Percent,Panola,COUNTY,3A,REGION,TXTXS - Texas A & M Forest Service,Visible,254810,Wildfire,32.330833333333324,-94.18138888888889
53DD374C-9586-442E-8195-F0BAB5821138,Feed Yard,519.5846,#93735D,Contained,408E3A31-82B6-4C0D-9697-64F86B525A8F,2025-10-13T01:41:02.000Z,2025-10-12T19:57:13.000Z,2025-10-13T15:02:19.456Z,100.0,Acres,100,Percent,Eastland,COUNTY,1B,REGION,TXTXS - Texas A & M Forest Service,Visible,254806,Wildfire,32.102042,-98.987198
56F1E578-BED8-4D34-AEE1-A68B1E4E7F13,Marion 4802,103.4454,#93735D,Contained,408E3A31-82B6-4C0D-9697-64F86B525A8F,2025-10-12T21:07:00.000Z,2025-10-12T19:02:00.000Z,2025-10-12T21:11:32.031Z,1.0,Acres,100,Percent,Marion,COUNTY,3A,REGION,TXTXS - Texas A & M Forest Service,Visible,254804,Wildfire,32.80599999999999,-94.519
CD6121E6-66C1-49DC-9854-7C77B9CF6761,Nacogdoches 4800,69.5678,#93735D,Contained,408E3A31-82B6-4C0D-9697-64F86B525A8F,2025-10-12T20:36:00.000Z,2025-10-12T18:27:00.000Z,2025-10-12T20:37:29.353Z,1.0,Acres,100,Percent,Nacogdoches,COUNTY,3B,REGION,TXTXS - Texas A & M Forest Service,Visible,254800,Wildfire,31.67551666666666,-94.93304
B498FABE-B4C0-4C6E-B5B7-8E17EB70B6B0,Harding,293.7842,#93735D,Contained,408E3A31-82B6-4C0D-9697-64F86B525A8F,2025-10-12T21:38:28.000Z,2025-10-12T17:45:05.000Z,2025-10-12T22:43:26.792Z,12.8,Acres,100,Percent,Wichita,COUNTY,2,REGION,TXTXS - Texas A & M Forest Service,Visible,254799,Wildfire,33.91452300000019,-98.42775199999998
DB4A2E5E-B18E-493D-8DB6-F7BD5F380BC1,Loyal Valley,465.4938,#93735D,Contained,408E3A31-82B6-4C0D-9697-64F86B525A8F,2025-10-12T21:56:57.000Z,2025-10-12T16:48:30.000Z,2025-10-12T21:58:04.367Z,50.0,Acres,100,Percent,Mason,COUNTY,7,REGION,TXTXS - Texas A & M Forest Service,Visible,254798,Wildfire,30.58361111111129,-99.01305555555554
F8D1D8CA-5D02-4354-B563-3AE698E9AE0C,Polk 4797,63.7525,#93735D,Contained,408E3A31-82B6-4C0D-9697-64F86B525A8F,2025-10-12T14:50:00.000Z,2025-10-12T12:14:00.000Z,2025-10-12T21:17:12.786Z,0.71,Acres,100,Percent,Polk,COUNTY,3B,REGION,TXTXS - Texas A & M Forest Service,Visible,254797,Wildfire,30.82143333333332,-95.11459999999998
EE2FAD23-FC54-48BD-81A2-670D6E8B9CAE,Polk 4796,98.3338,#595959,Controlled,6CE1E29B-606F-46CB-AEC6-6B9C40B2B18F,2025-10-14T15:09:00.000Z,2025-10-12T01:08:00.000Z,2025-10-14T15:11:22.277Z,1.14,Acres,100,Percent,Polk,COUNTY,3B,REGION,TXTXS - Texas A & M Forest Service,Visible,254796,Wildfire,30.686281827912953,-94.75739050520387
83905FF2-43DB-45CD-8AFC-CE75AAC43324,White Canyon,538.4858,#93735D,Contained,408E3A31-82B6-4C0D-9697-64F86B525A8F,2025-10-12T05:39:43.000Z,2025-10-11T22:37:05.000Z,2025-10-12T06:44:19.112Z,30.0,Acres,100,Percent,Fisher,COUNTY,1B,REGION,TXTXS - Texas A & M Forest Service,Visible,254795,Wildfire,32.956399,-100.463126
6909FCB0-84E0-4E7F-9211-5660E4B65232,Sabine 4793,91.9664,#93735D,Contained,408E3A31-82B6-4C0D-9697-64F86B525A8F,2025-10-12T00:50:00.000Z,2025-10-11T21:28:00.000Z,2025-10-12T16:58:32.079Z,14.0,Acres,100,Percent,Sabine,COUNTY,3B,REGION,TXTXS - Texas A & M Forest Service,Visible,254793,Wildfire,31.33399999999999,-94.01503
63B1173E-F3D8-4A06-8438-370BB9F29A45,Blackburn Canyon,1094.6,#93735D,Contained,408E3A31-82B6-4C0D-9697-64F86B525A8F,2025-10-12T00:50:00.000Z,2025-10-11T20:21:47.000Z,2025-10-12T00:50:47.763Z,39.0,Acres,100,Percent,Randall,COUNTY,1A,REGION,TXTXS - Texas A & M Forest Service,Visible,254788,Wildfire,34.99975,-101.8929
F6F0B3B6-6CA6-4B42-9F09-FF6FEB8AD412,Cass 4782,86.144,#93735D,Contained,408E3A31-82B6-4C0D-9697-64F86B525A8F,2025-10-11T21:27:00.000Z,2025-10-11T19:48:00.000Z,2025-10-11T21:35:01.534Z,2.0,Acres,100,Percent,Cass,COUNTY,3A,REGION,TXTXS - Texas A & M Forest Service,Visible,254782,Wildfire,32.92145,-94.05286666666667
6EDEF1C9-EC1D-4752-BE22-BBD6598F254B,Nacogdoches 4779,106.6486,#93735D,Contained,408E3A31-82B6-4C0D-9697-64F86B525A8F,2025-10-11T21:13:00.000Z,2025-10-11T19:00:00.000Z,2025-10-11T21:16:59.688Z,0.5,Acres,100,Percent,Nacogdoches,COUNTY,3B,REGION,TXTXS - Texas A & M Forest Service,Visible,254779,Wildfire,31.747099999999993,-94.45885
5491AEFD-7AE6-4F38-9757-C8B1CD65056D,Bowie 4776,96.7037,#93735D,Contained,408E3A31-82B6-4C0D-9697-64F86B525A8F,2025-10-11T19:52:00.000Z,2025-10-11T17:21:00.000Z,2025-10-12T21:14:08.006Z,16.0,Acres,100,Percent,Bowie,COUNTY,3A,REGION,TXTXS - Texas A & M Forest Service,Visible,254776,Wildfire,33.38401908818187,-94.32509345251631
48A31C31-78C6-4C44-B1E3-B268DB71EA1C,Hardin 4773,26.5671,#93735D,Contained,408E3A31-82B6-4C0D-9697-64F86B525A8F,2025-10-11T00:08:00.000Z,2025-10-10T22:48:00.000Z,2025-10-11T00:12:42.285Z,5.0,Acres,100,Percent,Hardin,COUNTY,3B,REGION,TXTXS - Texas A & M Forest Service,Visible,254773,Wildfire,30.2449,-94.54229000000001
54A89842-B75F-4D5D-8A39-FF9C3DA55A94,Carbon,18.0263,#93735D,Contained,408E3A31-82B6-4C0D-9697-64F86B525A8F,2025-10-11T01:35:34.000Z,2025-10-10T21:37:16.000Z,2025-10-14T00:05:41.412Z,20.0,Acres,100,Percent,Jackson,COUNTY,6,REGION,TXTXS - Texas A & M Forest Service,Visible,254772,Wildfire,28.988925000000002,-96.34032600000002
DD75E8E1-076F-4E9A-B7E8-0040E062BF0E,San Augustine 4769,104.186,#93735D,Contained,408E3A31-82B6-4C0D-9697-64F86B525A8F,2025-10-10T21:04:00.000Z,2025-10-10T20:19:00.000Z,2025-10-10T21:16:20.179Z,0.25,Acres,100,Percent,San Augustine,COUNTY,3B,REGION,TXTXS - Texas A & M Forest Service,Visible,254769,Wildfire,31.534560000000003,-94.125
18BD252F-B576-4E5E-9017-94386137965A,Orange 4753,6.379,#93735D,Contained,408E3A31-82B6-4C0D-9697-64F86B525A8F,2025-10-09T22:04:00.000Z,2025-10-09T20:00:00.000Z,2025-10-12T13:10:06.892Z,3.5,Acres,100,Percent,Orange,COUNTY,3B,REGION,TXTXS - Texas A & M Forest Service,Visible,254753,Wildfire,30.12410660704008,-93.94916602685088
66A3C591-9EE7-4862-ABC1-F87F3E51C8C8,Panola 4681,103.045,#93735D,Contained,408E3A31-82B6-4C0D-9697-64F86B525A8F,2025-10-04T23:59:00.000Z,2025-10-04T22:41:00.000Z,2025-10-12T13:01:03.551Z,1.0,Acres,100,Percent,Panola,COUNTY,3A,REGION,TXTXS - Texas A & M Forest Service,Visible,254681,Wildfire,32.236098,-94.161118
