id,name,altitude,color,statusname,statusid,statustimestamp,firsttimestatus,lastupdated,size,sizeunit,containment,containmentunit,admindivision,admindivisiontype,admindivisionupper,admindivisionuppertype,protectingunit,publicvisibility,number,categoryType,lat,lng
BF181D08-912C-4939-94A7-4EC249F34A6D,Cass 0633,91.0016,#FF0000,Active,9ABFE884-54FD-43AE-A309-0E03D24C3BC4,2026-01-20T09:41:53.000Z,2026-01-20T08:53:09.000Z,2026-01-20T09:59:22.481Z,2.0,Acres,0,Percent,Cass,COUNTY,3A,REGION,TXTXS - Texas A & M Forest Service,Visible,260633,Wildfire,33.007666666666665,-94.21933333333334
76561578-A19C-4296-BB4B-65EA752CA05D,Wise 0630,311.8961,#FF0000,Active,9ABFE884-54FD-43AE-A309-0E03D24C3BC4,2026-01-20T00:37:13.000Z,2026-01-19T23:14:10.000Z,2026-01-20T03:08:04.403Z,5.78,Acres,50,Percent,Wise,COUNTY,2,REGION,TXTXS - Texas A & M Forest Service,Visible,260630,Wildfire,33.353483333333344,-97.58810000000001
EB151B75-5D66-4422-B2DF-B40F24969B4C,Gillespie 0627,632.3768,#93735D,Contained,408E3A31-82B6-4C0D-9697-64F86B525A8F,2026-01-20T01:52:36.000Z,2026-01-19T22:36:19.000Z,2026-01-20T01:53:07.543Z,41.0,Acres,100,Percent,Gillespie,COUNTY,6,REGION,TXTXS - Texas A & M Forest Service,Visible,260627,Wildfire,30.312478550203963,-99.0835728379948
530CDC93-292E-49C0-8FDE-221263F4354C,Panola 0614,92.3228,#93735D,Contained,408E3A31-82B6-4C0D-9697-64F86B525A8F,2026-01-19T21:29:00.000Z,2026-01-19T20:54:00.000Z,2026-01-19T21:52:26.649Z,0.5,Acres,100,Percent,Panola,COUNTY,3A,REGION,TXTXS - Texas A & M Forest Service,Visible,260614,Wildfire,31.99833333333333,-94.37222222222222
DB40DE5C-A74D-4C40-B647-CCD97E06CAB3,Iron Bull,469.2188,#93735D,Contained,408E3A31-82B6-4C0D-9697-64F86B525A8F,2026-01-19T22:41:48.000Z,2026-01-19T20:51:56.000Z,2026-01-19T22:55:28.456Z,200.0,Acres,100,Percent,Throckmorton,COUNTY,1B,REGION,TXTXS - Texas A & M Forest Service,Visible,260613,Wildfire,33.18094999999999,-99.31586666666668
74093C26-713D-4D92-B88C-B909A26599D3,Polk 0603,42.695,#93735D,Contained,408E3A31-82B6-4C0D-9697-64F86B525A8F,2026-01-19T19:14:00.000Z,2026-01-19T18:39:00.000Z,2026-01-19T19:46:57.453Z,3.75,Acres,100,Percent,Polk,COUNTY,3B,REGION,TXTXS - Texas A & M Forest Service,Visible,260603,Wildfire,30.67171666666667,-94.97866666666667
9646B5F7-327B-445F-9356-7D612F8F020B,Polk 0601,70.5546,#93735D,Contained,408E3A31-82B6-4C0D-9697-64F86B525A8F,2026-01-19T18:18:00.000Z,2026-01-19T17:43:00.000Z,2026-01-19T18:22:28.945Z,1.33,Acres,100,Percent,Polk,COUNTY,3B,REGION,TXTXS - Texas A & M Forest Service,Visible,260601,Wildfire,30.74108333333333,-94.99351666666666
E629A942-1571-4371-A4C6-5CD0DA514CAA,Upshur 0572,149.2688,#93735D,Contained,408E3A31-82B6-4C0D-9697-64F86B525A8F,2026-01-19T00:40:00.000Z,2026-01-18T21:39:00.000Z,2026-01-19T19:20:58.323Z,14.0,Acres,100,Percent,Upshur,COUNTY,3A,REGION,TXTXS - Texas A & M Forest Service,Visible,260573,Wildfire,32.86796666666667,-95.14801666666666
735210C1-9048-4A4E-92F4-EBD373FC6A02,Orange 0571,8.8023,#93735D,Contained,408E3A31-82B6-4C0D-9697-64F86B525A8F,2026-01-18T23:28:00.000Z,2026-01-18T20:55:00.000Z,2026-01-19T00:18:32.238Z,4.46,Acres,100,Percent,Orange,COUNTY,3B,REGION,TXTXS - Texas A & M Forest Service,Visible,260571,Wildfire,30.19326666666666,-93.94750000000002
A2ED55CE-D2DF-4E54-8D92-54D46C347A64,Green Gate,635.4669,#93735D,Contained,408E3A31-82B6-4C0D-9697-64F86B525A8F,2026-01-19T01:46:49.000Z,2026-01-18T20:52:19.000Z,2026-01-19T02:07:51.924Z,6.0,Acres,100,Percent,Callahan,COUNTY,1B,REGION,TXTXS - Texas A & M Forest Service,Visible,260570,Wildfire,32.27216666666666,-99.58883333333334
6D8BCFAC-73E4-4072-B381-71F322EA324A,Red River 0566,147.9392,#93735D,Contained,408E3A31-82B6-4C0D-9697-64F86B525A8F,2026-01-18T22:31:00.000Z,2026-01-18T19:31:00.000Z,2026-01-18T22:36:05.349Z,4.3,Acres,100,Percent,Red River,COUNTY,3A,REGION,TXTXS - Texas A & M Forest Service,Visible,260566,Wildfire,33.62833333333332,-95.15776666666666
B81620BE-135D-4DCC-B11C-C770037C07AD,Gum Slough,13.7304,#93735D,Contained,408E3A31-82B6-4C0D-9697-64F86B525A8F,2026-01-19T00:59:00.000Z,2026-01-18T17:08:00.000Z,2026-01-19T01:08:06.613Z,120.0,Acres,100,Percent,Jasper,COUNTY,3B,REGION,TXTXS - Texas A & M Forest Service,Visible,260562,Wildfire,30.30222222222222,-93.99916666666667
51E116D6-959D-4A63-9863-736100BE3FBE,Hardin 0554,22.4513,#93735D,Contained,408E3A31-82B6-4C0D-9697-64F86B525A8F,2026-01-18T15:52:00.000Z,2026-01-18T13:26:00.000Z,2026-01-18T15:55:48.659Z,7.2,Acres,100,Percent,Hardin,COUNTY,3B,REGION,TXTXS - Texas A & M Forest Service,Visible,260554,Wildfire,30.298888888888882,-94.22333333333331
F84B4844-E63A-4D4A-A6D4-2E8BFB7FD59E,Caddo Creek,469.0737,#93735D,Contained,408E3A31-82B6-4C0D-9697-64F86B525A8F,2026-01-18T07:18:06.000Z,2026-01-18T02:11:11.000Z,2026-01-18T07:19:30.325Z,16.0,Acres,100,Percent,Stephens,COUNTY,1B,REGION,TXTXS - Texas A & M Forest Service,Visible,260549,Wildfire,32.57000000000001,-98.725
9A869FAB-AD71-4378-B989-7B1D789FA2F3,Liberty 0537,30.4841,#93735D,Contained,408E3A31-82B6-4C0D-9697-64F86B525A8F,2026-01-18T00:06:00.000Z,2026-01-17T20:34:00.000Z,2026-01-18T00:09:15.244Z,5.83,Acres,100,Percent,Liberty,COUNTY,4,REGION,TXTXS - Texas A & M Forest Service,Visible,260537,Wildfire,30.153100000000002,-94.90318333333335
E98502FA-F626-4BC2-8EBD-B12472DF60E9,Orange 0535,6.0665,#93735D,Contained,408E3A31-82B6-4C0D-9697-64F86B525A8F,2026-01-17T23:13:00.000Z,2026-01-17T20:24:00.000Z,2026-01-18T00:14:19.172Z,22.6,Acres,100,Percent,Orange,COUNTY,3B,REGION,TXTXS - Texas A & M Forest Service,Visible,260536,Wildfire,30.169722222222227,-93.96055555555557
F52E5B93-3809-4470-B4E4-B18C95AFB034,Polk 0534,49.8919,#93735D,Contained,408E3A31-82B6-4C0D-9697-64F86B525A8F,2026-01-17T21:20:00.000Z,2026-01-17T20:14:00.000Z,2026-01-17T21:23:59.960Z,6.0,Acres,100,Percent,Polk,COUNTY,3B,REGION,TXTXS - Texas A & M Forest Service,Visible,260534,Wildfire,30.722499999999997,-95.00750000000001
A249D4C8-35DF-4B73-AB3B-3F0FF2D94D47,Hardin 0521,37.792,#93735D,Contained,408E3A31-82B6-4C0D-9697-64F86B525A8F,2026-01-17T06:14:36.000Z,2026-01-17T02:56:33.000Z,2026-01-17T11:35:56.521Z,3.85,Acres,100,Percent,Hardin,COUNTY,3B,REGION,TXTXS - Texas A & M Forest Service,Visible,260521,Wildfire,30.525583333333326,-94.19681666666666
06B6F03D-F646-4091-BD3B-5A6A34BB1FF8,Tyler 0520,48.4682,#93735D,Contained,408E3A31-82B6-4C0D-9697-64F86B525A8F,2026-01-17T05:33:33.000Z,2026-01-17T02:07:17.000Z,2026-01-17T15:53:21.809Z,12.0,Acres,100,Percent,Tyler,COUNTY,3B,REGION,TXTXS - Texas A & M Forest Service,Visible,260520,Wildfire,30.536208000000002,-94.49264
3721945B-1C0D-44DB-87D9-B2BEE55CD8CE,Newton 0508,68.2508,#93735D,Contained,408E3A31-82B6-4C0D-9697-64F86B525A8F,2026-01-16T23:10:00.000Z,2026-01-16T20:03:00.000Z,2026-01-16T23:33:59.313Z,6.32,Acres,100,Percent,Newton,COUNTY,3B,REGION,TXTXS - Texas A & M Forest Service,Visible,260508,Wildfire,30.92789999999999,-93.81391666666667
53129189-C617-4DD3-B96C-A09127F1A7B5,Liberty 0503,20.6418,#93735D,Contained,408E3A31-82B6-4C0D-9697-64F86B525A8F,2026-01-16T20:12:00.000Z,2026-01-16T18:38:00.000Z,2026-01-16T20:41:15.292Z,1.0,Acres,100,Percent,Liberty,COUNTY,4,REGION,TXTXS - Texas A & M Forest Service,Visible,260503,Wildfire,30.105277777777765,-94.64500000000002
01688BAC-D7CF-4E66-A720-EF58B80DF214,Newton 0501,9.8481,#93735D,Contained,408E3A31-82B6-4C0D-9697-64F86B525A8F,2026-01-16T20:05:00.000Z,2026-01-16T18:06:00.000Z,2026-01-16T20:36:37.644Z,4.23,Acres,100,Percent,Newton,COUNTY,3B,REGION,TXTXS - Texas A & M Forest Service,Visible,260501,Wildfire,30.377466666666663,-93.76856666666667
7DC55CE8-6EFE-4D3F-98D1-D4F9883F94D0,Jasper 0461,49.0663,#93735D,Contained,408E3A31-82B6-4C0D-9697-64F86B525A8F,2026-01-15T20:10:00.000Z,2026-01-15T19:04:00.000Z,2026-01-15T20:41:58.264Z,0.1,Acres,100,Percent,Jasper,COUNTY,3B,REGION,TXTXS - Texas A & M Forest Service,Visible,260463,Wildfire,30.732089999999992,-93.87741000000001
945BB98E-ACFF-4A7E-8A35-9203AB5C4E00,Sabine 0454,102.2752,#93735D,Contained,408E3A31-82B6-4C0D-9697-64F86B525A8F,2026-01-15T18:29:00.000Z,2026-01-15T17:10:00.000Z,2026-01-15T18:33:07.001Z,5.0,Acres,100,Percent,Sabine,COUNTY,3B,REGION,TXTXS - Texas A & M Forest Service,Visible,260454,Wildfire,31.337726666666665,-94.00946833333333
62750872-3C98-4525-9153-F0CC3262892D,Jasper 0429,96.1628,#93735D,Contained,408E3A31-82B6-4C0D-9697-64F86B525A8F,2026-01-15T04:53:00.000Z,2026-01-15T03:09:00.000Z,2026-01-15T04:57:49.772Z,0.57,Acres,100,Percent,Jasper,COUNTY,3B,REGION,TXTXS - Texas A & M Forest Service,Visible,260429,Wildfire,30.959783333333327,-93.98708333333333
A26FEC72-9845-453B-8C8E-326E3986BD9F,Rusk 0426,149.5016,#93735D,Contained,408E3A31-82B6-4C0D-9697-64F86B525A8F,2026-01-14T23:57:00.000Z,2026-01-14T22:29:00.000Z,2026-01-15T16:31:33.176Z,0.64,Acres,100,Percent,Rusk,COUNTY,3A,REGION,TXTXS - Texas A & M Forest Service,Visible,260426,Wildfire,32.042766666666665,-94.71485
4B63B3DB-AD25-431E-A1CD-A44EA293FE30,Rusk 0418,161.5499,#93735D,Contained,408E3A31-82B6-4C0D-9697-64F86B525A8F,2026-01-14T22:07:00.000Z,2026-01-14T20:37:00.000Z,2026-01-14T22:09:12.339Z,0.5,Acres,100,Percent,Rusk,COUNTY,3A,REGION,TXTXS - Texas A & M Forest Service,Visible,260418,Wildfire,31.939983333333334,-94.62666666666667
B5ABF05C-E097-4991-B24E-E3EFD1CC269E,Cherokee 0417,102.1959,#93735D,Contained,408E3A31-82B6-4C0D-9697-64F86B525A8F,2026-01-14T22:20:00.000Z,2026-01-14T20:19:00.000Z,2026-01-14T22:46:19.810Z,3.0,Acres,100,Percent,Cherokee,COUNTY,3A,REGION,TXTXS - Texas A & M Forest Service,Visible,260417,Wildfire,31.787129999999994,-95.31521
E1ED9915-3A11-4B78-819D-F360F56CDDE3,Hardin 0416,13.7403,#93735D,Contained,408E3A31-82B6-4C0D-9697-64F86B525A8F,2026-01-14T20:45:00.000Z,2026-01-14T19:19:00.000Z,2026-01-14T21:08:25.641Z,2.0,Acres,100,Percent,Hardin,COUNTY,3B,REGION,TXTXS - Texas A & M Forest Service,Visible,260416,Wildfire,30.242633333333334,-94.21525
9A971F37-0414-4F37-9770-8DA6BA3168E7,East Detroit,149.8912,#93735D,Contained,408E3A31-82B6-4C0D-9697-64F86B525A8F,2026-01-14T19:31:00.000Z,2026-01-14T15:36:00.000Z,2026-01-14T21:00:18.101Z,106.0,Acres,100,Percent,Red River,COUNTY,3A,REGION,TXTXS - Texas A & M Forest Service,Visible,260405,Wildfire,33.64734,-95.24956000000002
22227560-B94E-4AD9-8157-B47F4DE00107,Jasper 0377,50.2243,#93735D,Contained,408E3A31-82B6-4C0D-9697-64F86B525A8F,2026-01-13T20:50:00.000Z,2026-01-13T19:30:00.000Z,2026-01-13T21:20:54.775Z,0.71,Acres,100,Percent,Jasper,COUNTY,3B,REGION,TXTXS - Texas A & M Forest Service,Visible,260377,Wildfire,30.714033333333344,-93.91663333333335
7EBE5C85-928E-42BF-8AFC-2B82E24988DD,Walker 0348,113.4567,#93735D,Contained,408E3A31-82B6-4C0D-9697-64F86B525A8F,2026-01-13T00:54:00.000Z,2026-01-12T23:04:00.000Z,2026-01-14T22:25:26.219Z,14.52,Acres,100,Percent,Walker,COUNTY,4,REGION,TXTXS - Texas A & M Forest Service,Visible,260348,Wildfire,30.680016666666663,-95.37301666666669
3BD84C8E-A5BE-49F0-A071-18DF28305E8C,Cass 0124,123.9603,#93735D,Contained,408E3A31-82B6-4C0D-9697-64F86B525A8F,2026-01-03T09:19:35.000Z,2026-01-03T07:41:02.000Z,2026-01-03T12:31:52.567Z,1.0,Acres,100,Percent,Cass,COUNTY,3A,REGION,TXTXS - Texas A & M Forest Service,Visible,260124,Wildfire,33.168833333333325,-94.59183333333333
